{
  "type": "FeatureCollection",
  "features": [
    {
      "type": "Feature",
      "properties": {
        "norad_id": 40797,
        "name": "COSMOS 2251 DEB",
        "group": "cosmos-2251-debris",
        "lat": 28.060416035980083,
        "lon": -92.6541242610646,
        "alt_km": 569.4169235273021,
        "timestamp": "2025-12-12T07:43:20.914357+00:00",
        "meta_object_name": "COSMOS 2251 DEB",
        "meta_object_id": "1993-036BWA",
        "meta_epoch": "2025-11-19T18:43:16.602528",
        "meta_mean_motion": 15.10509474,
        "meta_eccentricity": 0.00703947,
        "meta_inclination": 73.92,
        "meta_ra_of_asc_node": 143.0892,
        "meta_arg_of_pericenter": 60.6639,
        "meta_mean_anomaly": 300.156,
        "meta_ephemeris_type": 0,
        "meta_classification_type": "U",
        "meta_norad_cat_id": 40797,
        "meta_element_set_no": 999,
        "meta_rev_at_epoch": 64297,
        "meta_bstar": 0.00072810385,
        "meta_mean_motion_dot": 0.00012707,
        "meta_mean_motion_ddot": 0,
        "tle_line1": "1 40797U 93036BWA 25323.78005327  .00012707  00000+0  72810-3 0  9992",
        "tle_line2": "2 40797  73.9200 143.0892 0070394  60.6639 300.1560 15.10509474642979"
      },
      "geometry": {
        "type": "Point",
        "coordinates": [
          -92.6541242610646,
          28.060416035980083
        ]
      }
    },
    {
      "type": "Feature",
      "properties": {
        "norad_id": 40799,
        "name": "COSMOS 2251 DEB",
        "group": "cosmos-2251-debris",
        "lat": -4.154587996124975,
        "lon": -79.58256204011568,
        "alt_km": 656.4354792565937,
        "timestamp": "2025-12-12T07:43:20.914368+00:00",
        "meta_object_name": "COSMOS 2251 DEB",
        "meta_object_id": "1993-036BWC",
        "meta_epoch": "2025-12-09T01:53:34.430208",
        "meta_mean_motion": 14.96607637,
        "meta_eccentricity": 0.01188532,
        "meta_inclination": 73.9255,
        "meta_ra_of_asc_node": 105.8165,
        "meta_arg_of_pericenter": 348.6174,
        "meta_mean_anomaly": 11.2323,
        "meta_ephemeris_type": 0,
        "meta_classification_type": "U",
        "meta_norad_cat_id": 40799,
        "meta_element_set_no": 999,
        "meta_rev_at_epoch": 49922,
        "meta_bstar": 0.00041300806,
        "meta_mean_motion_dot": 5.391e-05,
        "meta_mean_motion_ddot": 0,
        "tle_line1": "1 40799U 93036BWC 25343.07887072  .00005391  00000+0  41301-3 0  9995",
        "tle_line2": "2 40799  73.9255 105.8165 0118853 348.6174  11.2323 14.96607637499224"
      },
      "geometry": {
        "type": "Point",
        "coordinates": [
          -79.58256204011568,
          -4.154587996124975
        ]
      }
    },
    {
      "type": "Feature",
      "properties": {
        "norad_id": 40802,
        "name": "COSMOS 2251 DEB",
        "group": "cosmos-2251-debris",
        "lat": -71.4006408987676,
        "lon": 32.09029840060254,
        "alt_km": 599.9075836408174,
        "timestamp": "2025-12-12T07:43:20.914379+00:00",
        "meta_object_name": "COSMOS 2251 DEB",
        "meta_object_id": "1993-036BWF",
        "meta_epoch": "2025-12-09T18:25:18.853248",
        "meta_mean_motion": 14.77560234,
        "meta_eccentricity": 0.00632236,
        "meta_inclination": 74.04,
        "meta_ra_of_asc_node": 158.8434,
        "meta_arg_of_pericenter": 258.1677,
        "meta_mean_anomaly": 101.2403,
        "meta_ephemeris_type": 0,
        "meta_classification_type": "U",
        "meta_norad_cat_id": 40802,
        "meta_element_set_no": 999,
        "meta_rev_at_epoch": 64365,
        "meta_bstar": 0.0011312786,
        "meta_mean_motion_dot": 8.327e-05,
        "meta_mean_motion_ddot": 0,
        "tle_line1": "1 40802U 93036BWF 25343.76757932  .00008327  00000+0  11313-2 0  9998",
        "tle_line2": "2 40802  74.0400 158.8434 0063223 258.1677 101.2403 14.77560234643650"
      },
      "geometry": {
        "type": "Point",
        "coordinates": [
          32.09029840060254,
          -71.4006408987676
        ]
      }
    },
    {
      "type": "Feature",
      "properties": {
        "norad_id": 40803,
        "name": "COSMOS 2251 DEB",
        "group": "cosmos-2251-debris",
        "lat": 37.376720519424296,
        "lon": -139.96278183036569,
        "alt_km": 732.2633526734126,
        "timestamp": "2025-12-12T07:43:20.914389+00:00",
        "meta_object_name": "COSMOS 2251 DEB",
        "meta_object_id": "1993-036BWG",
        "meta_epoch": "2025-12-05T22:55:29.451072",
        "meta_mean_motion": 14.51792027,
        "meta_eccentricity": 0.00362816,
        "meta_inclination": 74.0122,
        "meta_ra_of_asc_node": 64.6912,
        "meta_arg_of_pericenter": 281.8159,
        "meta_mean_anomaly": 77.8934,
        "meta_ephemeris_type": 0,
        "meta_classification_type": "U",
        "meta_norad_cat_id": 40803,
        "meta_element_set_no": 999,
        "meta_rev_at_epoch": 58654,
        "meta_bstar": 0.00062935795,
        "meta_mean_motion_dot": 2.525e-05,
        "meta_mean_motion_ddot": 0,
        "tle_line1": "1 40803U 93036BWG 25339.95520198  .00002525  00000+0  62936-3 0  9999",
        "tle_line2": "2 40803  74.0122  64.6912 0036281 281.8159  77.8934 14.51792027586549"
      },
      "geometry": {
        "type": "Point",
        "coordinates": [
          -139.96278183036569,
          37.376720519424296
        ]
      }
    },
    {
      "type": "Feature",
      "properties": {
        "norad_id": 40808,
        "name": "COSMOS 2251 DEB",
        "group": "cosmos-2251-debris",
        "lat": 30.870523764143474,
        "lon": 156.12812723139504,
        "alt_km": 672.8542908916652,
        "timestamp": "2025-12-12T07:43:20.914399+00:00",
        "meta_object_name": "COSMOS 2251 DEB",
        "meta_object_id": "1993-036BWM",
        "meta_epoch": "2025-12-11T12:12:17.709120",
        "meta_mean_motion": 14.67446541,
        "meta_eccentricity": 0.00093792,
        "meta_inclination": 74.0408,
        "meta_ra_of_asc_node": 147.8475,
        "meta_arg_of_pericenter": 184.2213,
        "meta_mean_anomaly": 233.7703,
        "meta_ephemeris_type": 0,
        "meta_classification_type": "U",
        "meta_norad_cat_id": 40808,
        "meta_element_set_no": 999,
        "meta_rev_at_epoch": 63601,
        "meta_bstar": 0.0032816387,
        "meta_mean_motion_dot": 0.0001861,
        "meta_mean_motion_ddot": 0,
        "tle_line1": "1 40808U 93036BWM 25345.50853830  .00018610  00000+0  32816-2 0  9999",
        "tle_line2": "2 40808  74.0408 147.8475 0009379 184.2213 233.7703 14.67446541636013"
      },
      "geometry": {
        "type": "Point",
        "coordinates": [
          156.12812723139504,
          30.870523764143474
        ]
      }
    },
    {
      "type": "Feature",
      "properties": {
        "norad_id": 40810,
        "name": "COSMOS 2251 DEB",
        "group": "cosmos-2251-debris",
        "lat": -35.33520293151767,
        "lon": 63.82387681080333,
        "alt_km": 704.6198610575393,
        "timestamp": "2025-12-12T07:43:20.914410+00:00",
        "meta_object_name": "COSMOS 2251 DEB",
        "meta_object_id": "1993-036BWP",
        "meta_epoch": "2025-12-11T13:47:10.605120",
        "meta_mean_motion": 14.58706242,
        "meta_eccentricity": 0.0018546,
        "meta_inclination": 74.0365,
        "meta_ra_of_asc_node": 76.9551,
        "meta_arg_of_pericenter": 228.6386,
        "meta_mean_anomaly": 131.3185,
        "meta_ephemeris_type": 0,
        "meta_classification_type": "U",
        "meta_norad_cat_id": 40810,
        "meta_element_set_no": 999,
        "meta_rev_at_epoch": 61666,
        "meta_bstar": 0.0012743494,
        "meta_mean_motion_dot": 5.935e-05,
        "meta_mean_motion_ddot": 0,
        "tle_line1": "1 40810U 93036BWP 25345.57442830  .00005935  00000+0  12743-2 0  9996",
        "tle_line2": "2 40810  74.0365  76.9551 0018546 228.6386 131.3185 14.58706242616668"
      },
      "geometry": {
        "type": "Point",
        "coordinates": [
          63.82387681080333,
          -35.33520293151767
        ]
      }
    },
    {
      "type": "Feature",
      "properties": {
        "norad_id": 46271,
        "name": "COSMOS 2251 DEB",
        "group": "cosmos-2251-debris",
        "lat": -32.084241533578265,
        "lon": -90.66876767442862,
        "alt_km": 698.8965936229833,
        "timestamp": "2025-12-12T07:43:20.914420+00:00",
        "meta_object_name": "COSMOS 2251 DEB",
        "meta_object_id": "1993-036BWT",
        "meta_epoch": "2025-12-10T13:23:10.525344",
        "meta_mean_motion": 14.51418765,
        "meta_eccentricity": 0.0040241,
        "meta_inclination": 74.0479,
        "meta_ra_of_asc_node": 82.3177,
        "meta_arg_of_pericenter": 204.0304,
        "meta_mean_anomaly": 155.8981,
        "meta_ephemeris_type": 0,
        "meta_classification_type": "U",
        "meta_norad_cat_id": 46271,
        "meta_element_set_no": 999,
        "meta_rev_at_epoch": 84610,
        "meta_bstar": 0.00059247,
        "meta_mean_motion_dot": 2.361e-05,
        "meta_mean_motion_ddot": 0,
        "tle_line1": "1 46271U 93036BWT 25344.55776071  .00002361  00000+0  59247-3 0  9998",
        "tle_line2": "2 46271  74.0479  82.3177 0040241 204.0304 155.8981 14.51418765846103"
      },
      "geometry": {
        "type": "Point",
        "coordinates": [
          -90.66876767442862,
          -32.084241533578265
        ]
      }
    }
  ]
}